OBJECT_NAME,OBJECT_ID,EPOCH,MEAN_MOTION,ECCENTRICITY,INCLINATION,RA_OF_ASC_NODE,ARG_OF_PERICENTER,MEAN_ANOMALY,EPHEMERIS_TYPE,CLASSIFICATION_TYPE,NORAD_CAT_ID,ELEMENT_SET_NO,REV_AT_EPOCH,BSTAR,MEAN_MOTION_DOT,MEAN_MOTION_DDOT
FENGYUN 1C DEB,1999-025EPD,2025-03-29T21:27:16.356384,14.35991879,.0074493,98.9491,313.9772,71.0913,289.8328,0,U,37928,999,77848,.10587E-2,.3128E-4,0
FENGYUN 1C DEB,1999-025EPM,2025-04-02T08:14:28.367232,14.16348647,.0073225,98.7350,135.9509,154.8848,216.7980,0,U,38116,999,60883,.69078E-3,.1365E-4,0
FENGYUN 1C DEB,1999-025EPS,2025-04-01T15:10:33.205728,14.20059776,.0211092,99.0841,235.2497,135.7965,226.0294,0,U,38121,999,80297,.2634E-2,.6974E-4,0
FENGYUN 1C DEB,1999-025EPT,2025-03-31T23:20:37.678848,14.41095262,.0231359,98.3162,99.7456,209.7891,148.9961,0,U,38122,999,64053,.59636E-3,.2589E-4,0
FENGYUN 1C DEB,1999-025EPV,2025-03-31T18:23:07.225440,13.40792888,.0355551,97.7835,101.4952,249.0868,107.1871,0,U,38124,999,51151,.39439E-3,.283E-5,0
FENGYUN 1C DEB,1999-025EQB,2025-03-11T16:06:58.818240,13.75996679,.0210682,98.6133,148.3415,247.6368,110.2337,0,U,38130,999,65484,.2654E-2,.2991E-4,0
FENGYUN 1C DEB,1999-025EQG,2025-03-30T21:21:02.743776,14.24377562,.0225857,98.6889,149.4610,98.6525,264.0310,0,U,38135,999,57383,.95072E-3,.282E-4,0
FENGYUN 1C DEB,1999-025EQJ,2025-03-31T08:59:36.105216,14.05871070,.0046685,98.8938,138.0936,67.7337,292.8773,0,U,38137,999,60106,.39334E-3,.606E-5,0
FENGYUN 1C DEB,1999-025EQQ,2025-03-30T09:04:50.088864,14.04291874,.0056667,99.0556,146.3548,216.0150,143.7193,0,U,38143,999,56670,.11149E-2,.1753E-4,0
FENGYUN 1C DEB,1999-025EQR,2025-03-17T20:12:03.070944,13.58142469,.0292061,98.9862,283.8199,168.2168,192.6005,0,U,38144,999,81174,.32403E-2,.3062E-4,0
FENGYUN 1C DEB,1999-025EQT,2025-03-31T09:41:26.149632,14.55705587,.0213166,99.5073,134.9670,149.2042,224.0540,0,U,38146,999,28146,.14477E-2,.8552E-4,0
FENGYUN 1C DEB,1999-025EQU,2025-03-30T07:35:45.027168,14.22641431,.0049914,98.5714,110.4824,329.5521,30.2761,0,U,38147,999,56726,.11146E-2,.2482E-4,0
FENGYUN 1C DEB,1999-025EQW,2025-04-01T17:43:27.701184,14.25539880,.0077899,98.3473,95.9525,190.3781,169.5795,0,U,38149,999,66854,.37076E-3,.864E-5,0
FENGYUN 1C DEB,1999-025ERC,2025-03-31T23:39:44.099712,14.21242440,.0101096,98.4519,5.6515,153.8841,206.7487,0,U,38155,999,60138,.35255E-2,.8052E-4,0
FENGYUN 1C DEB,1999-025ERE,2025-03-30T21:45:21.904992,14.20184142,.0279473,99.6790,332.5869,114.6481,248.4073,0,U,38157,999,72600,.12762E-2,.3982E-4,0
FENGYUN 1C DEB,1999-025ERG,2025-03-24T22:35:43.544544,14.03025539,.0056881,99.3461,329.0497,344.0025,15.9342,0,U,38159,999,79426,.11409E-2,.1751E-4,0
FENGYUN 1C DEB,1999-025ERL,2025-03-28T08:58:31.255968,14.05157991,.0076169,99.1504,121.7449,242.0712,117.2728,0,U,38163,999,20898,.17465E-2,.2849E-4,0
FENGYUN 1C DEB,1999-025ERP,2025-04-02T05:12:13.217760,14.26641792,.0057042,99.0740,185.0719,63.1176,297.5818,0,U,38166,999,60138,.44509E-2,.1091E-3,0
FENGYUN 1C DEB,1999-025ERS,2025-03-24T01:58:03.181728,14.62124252,.0034928,98.9798,32.8176,153.3931,206.9070,0,U,38169,999,57404,.65507E-2,.33324E-3,0
FENGYUN 1C DEB,1999-025ERW,2025-03-31T11:55:08.791392,14.34739552,.0169822,99.0216,339.1258,142.6922,218.6200,0,U,38173,999,56966,.15833E-2,.5231E-4,0
FENGYUN 1C DEB,1999-025ESA,2025-03-31T17:48:32.825376,13.95810368,.0227289,98.9410,104.2176,11.4515,349.1698,0,U,38491,999,62888,.13014E-2,.2164E-4,0
FENGYUN 1C DEB,1999-025ESB,2025-03-25T11:06:54.074304,13.90142482,.0243697,98.6088,174.6640,154.2608,207.0919,0,U,38492,999,71859,.13419E-1,.2109E-3,0
FENGYUN 1C DEB,1999-025ESC,2025-03-26T16:21:55.228608,13.61921766,.0427965,99.0466,62.7450,202.8166,155.3449,0,U,38493,999,52944,.61859E-3,.84E-5,0
FENGYUN 1C DEB,1999-025ESD,2025-03-31T16:00:14.317632,13.94945049,.040321,98.4259,61.1384,8.4682,352.3024,0,U,38494,999,3577,.11704E-1,.31208E-3,0
FENGYUN 1C DEB,1999-025ESF,2025-03-19T20:44:59.719776,14.09020317,.0079687,98.7739,95.5380,44.7846,315.9721,0,U,38496,999,77247,.24812E-2,.4386E-4,0
FENGYUN 1C DEB,1999-025ESH,2025-04-01T21:17:58.283232,12.96097616,.0555449,99.7175,139.6233,290.5919,63.6462,0,U,38498,999,72953,.31876E-2,.1802E-4,0
FENGYUN 1C DEB,1999-025ESV,2025-03-09T07:39:02.833056,14.12447736,.0097867,98.6102,88.0585,225.0778,134.2424,0,U,38510,999,84738,.11469E-2,.2173E-4,0
FENGYUN 1C DEB,1999-025ESX,2025-03-25T17:44:52.841472,13.73055623,.0229123,98.3953,358.4284,90.7691,271.9718,0,U,38512,999,55973,.32215E-2,.3561E-4,0
FENGYUN 1C DEB,1999-025ESY,2025-04-02T00:17:44.416896,14.66912268,.028008,97.6414,8.8122,348.2067,11.2665,0,U,38513,999,59912,.24253E-2,.24575E-3,0
FENGYUN 1C DEB,1999-025ESZ,2025-04-01T00:08:48.298848,14.08206101,.0287894,98.0462,146.5420,34.5203,327.4298,0,U,38514,999,84389,.72064E-2,.18004E-3,0
FENGYUN 1C DEB,1999-025ETB,2025-03-28T05:42:33.391872,14.33763738,.0111148,98.4208,77.6227,176.0679,184.1405,0,U,38516,999,81154,.29233E-3,.827E-5,0
FENGYUN 1C DEB,1999-025ETJ,2025-03-30T18:41:05.735040,14.17891726,.0059198,99.1665,96.3873,4.5687,169.2352,0,U,38717,999,54782,.30902E-2,.6383E-4,0
FENGYUN 1C DEB,1999-025ETP,2025-03-30T21:44:47.946336,14.49891595,.0169347,99.3592,158.2271,141.4747,219.8675,0,U,38722,999,66732,.47588E-2,.22111E-3,0
FENGYUN 1C DEB,1999-025ETR,2025-03-27T11:32:34.568160,14.10245752,.0135485,98.7446,101.6481,92.2977,269.3714,0,U,38724,999,69315,.10645E-1,.2056E-3,0
FENGYUN 1C DEB,1999-025ETS,2025-03-31T13:49:15.028032,14.37843256,.0035152,98.8565,206.7447,293.8178,65.9325,0,U,38725,999,69665,.37565E-2,.11378E-3,0
FENGYUN 1C DEB,1999-025ETT,2025-04-01T16:43:14.722752,14.74501565,.0034737,99.1529,77.8942,218.7582,141.1130,0,U,38726,999,72863,.72724E-2,.49105E-3,0
FENGYUN 1C DEB,1999-025ETV,2025-03-27T15:24:09.570816,14.65743592,.0082491,99.2335,40.3967,130.0399,42.8320,0,U,38728,999,74850,.3027E-2,.17321E-3,0
FENGYUN 1C DEB,1999-025EUD,2025-03-31T21:38:26.081664,14.43967556,.0213723,98.8901,325.5048,69.6248,356.7760,0,U,38789,999,76270,.11515E-2,.5146E-4,0
FENGYUN 1C DEB,1999-025EUK,2025-03-30T21:35:23.906400,13.28541164,.0512055,98.7153,151.8569,172.7161,188.1782,0,U,38795,999,75096,.38514E-2,.3585E-4,0
FENGYUN 1C DEB,1999-025EUM,2025-04-02T10:28:47.061120,13.61441557,.0245707,99.5062,352.1031,149.8955,211.6571,0,U,38797,999,55822,.5446E-3,.467E-5,0
FENGYUN 1C DEB,1999-025EUP,2025-03-31T23:08:10.110624,14.45907298,.0171715,98.4194,167.7496,47.9340,313.6315,0,U,38799,999,60339,.18106E-2,.7686E-4,0
FENGYUN 1C DEB,1999-025EUR,2025-04-02T10:23:12.177312,14.23333124,.0352732,98.4021,153.9762,18.0995,353.6079,0,U,38801,999,60741,.96677E-3,.4129E-4,0
FENGYUN 1C DEB,1999-025EUT,2025-04-01T22:25:11.940672,14.20827175,.006906,99.1361,86.6066,44.9386,315.7351,0,U,38803,999,56590,.40914E-2,.9019E-4,0
FENGYUN 1C DEB,1999-025EUZ,2025-03-18T20:33:07.251552,14.17175322,.0225084,98.6026,96.4345,23.2842,337.8339,0,U,38809,999,65396,.20818E-2,.5342E-4,0
FENGYUN 1C DEB,1999-025EVC,2025-03-31T12:22:03.262656,13.66375535,.0263832,98.4413,325.4813,350.0086,9.5875,0,U,38812,999,42685,.27344E-2,.2838E-4,0
FENGYUN 1C DEB,1999-025EVD,2025-04-01T16:40:51.470688,14.19458071,.0007063,99.3322,74.9691,110.1405,250.0530,0,U,38813,999,44631,.94891E-3,.195E-4,0
FENGYUN 1C DEB,1999-025EVJ,2025-04-02T09:51:57.055392,14.38586468,.0089942,98.3259,156.4035,143.3902,279.1817,0,U,38818,999,63590,.91766E-3,.2902E-4,0
FENGYUN 1C DEB,1999-025EVK,2025-03-31T05:48:15.806304,14.18754971,.0079882,98.6071,90.2633,214.2562,158.3241,0,U,38819,999,59840,.66081E-3,.1374E-4,0
FENGYUN 1C DEB,1999-025EVQ,2025-03-29T06:44:56.461920,14.10844050,.0103904,99.2889,212.2137,203.4516,156.1897,0,U,38824,999,65488,.72862E-2,.13708E-3,0
FENGYUN 1C DEB,1999-025EVT,2025-04-01T19:05:15.820800,14.31183717,.0221004,98.4073,122.6154,349.5839,10.0804,0,U,38827,999,57411,.14378E-2,.4917E-4,0
FENGYUN 1C DEB,1999-025EVV,2025-03-29T18:35:17.303712,14.08598869,.0042096,98.7664,112.0444,40.1630,320.2638,0,U,38829,999,72495,.12899E-2,.2193E-4,0
FENGYUN 1C DEB,1999-025EVY,2025-04-02T01:28:39.235872,14.03493621,.0085933,99.2837,131.1942,25.7183,334.8218,0,U,38832,999,60184,.1669E-2,.2656E-4,0
FENGYUN 1C DEB,1999-025EWD,2025-03-28T08:58:21.273312,13.69000011,.0245535,99.8095,122.7819,200.4760,158.6407,0,U,39536,999,58214,.23153E-2,.2424E-4,0
FENGYUN 1C DEB,1999-025EWE,2025-04-01T08:52:46.310880,13.82834040,.0177119,99.1386,243.9562,304.4224,54.0298,0,U,39537,999,55725,.27276E-2,.3309E-4,0
FENGYUN 1C DEB,1999-025EWJ,2025-03-22T20:00:41.334336,14.19533807,.0073755,98.7067,128.5748,116.2202,244.6580,0,U,39541,999,57808,.19115E-2,.41E-4,0
FENGYUN 1C DEB,1999-025EWL,2025-04-01T19:56:34.960416,13.69471244,.0341674,99.0651,136.2196,92.1003,271.9303,0,U,39543,999,45695,.16322E-2,.2104E-4,0
FENGYUN 1C DEB,1999-025EWM,2025-03-31T10:04:14.516544,14.05112165,.0055192,98.7734,338.2897,9.5341,350.6862,0,U,39544,999,53255,.68829E-3,.1083E-4,0
FENGYUN 1C DEB,1999-025EWU,2025-03-24T16:12:48.877344,13.83520337,.0142311,98.9394,245.6032,20.1632,340.5067,0,U,40688,999,26279,.88642E-3,.1015E-4,0
FENGYUN 1C DEB,1999-025EWV,2025-04-01T13:44:06.118656,13.63674472,.0315848,99.1240,24.7485,43.9878,318.5943,0,U,40689,999,51402,.36181E-2,.3976E-4,0
FENGYUN 1C DEB,1999-025EWW,2025-03-30T20:01:18.392160,13.95343493,.009462,99.4482,118.7036,122.0696,238.9695,0,U,40690,999,57790,.58822E-3,.781E-5,0
FENGYUN 1C DEB,1999-025EWX,2025-03-25T19:27:05.430528,13.89810603,.0128074,99.0867,123.5388,301.0390,57.8245,0,U,40691,999,51797,.4103E-3,.494E-5,0
FENGYUN 1C DEB,1999-025EXB,2025-04-01T12:04:54.511680,14.49826566,.0285258,99.4154,179.2688,10.1547,350.5242,0,U,40695,999,28166,.31432E-3,.1974E-4,0
FENGYUN 1C DEB,1999-025EXC,2025-03-24T17:26:39.498720,13.96572744,.0079988,98.9375,77.6777,1.5263,358.6130,0,U,40696,999,52008,.50923E-3,.681E-5,0
FENGYUN 1C DEB,1999-025EXH,2025-04-01T23:06:56.877984,14.61130387,.0088718,98.9753,347.6853,356.0109,4.0372,0,U,41003,999,56528,.55905E-2,.29134E-3,0
